[{"OBJECT_NAME":"STARLINK-32826","OBJECT_ID":"2025-029Y","EPOCH":"2026-03-09T16:55:48.065088","MEAN_MOTION":15.3020808,"ECCENTRICITY":0.00015829,"INCLINATION":53.1603,"RA_OF_ASC_NODE":232.1196,"ARG_OF_PERICENTER":32.5798,"MEAN_ANOMALY":327.53,"EPHEMERIS_TYPE":0,"CLASSIFICATION_TYPE":"U","NORAD_CAT_ID":62970,"ELEMENT_SET_NO":999,"REV_AT_EPOCH":6132,"BSTAR":0.0012937487,"MEAN_MOTION_DOT":0.00038165,"MEAN_MOTION_DDOT":0},{"OBJECT_NAME":"CZ-2C R\/B","OBJECT_ID":"2017-085D","EPOCH":"2026-03-09T07:36:19.955232","MEAN_MOTION":15.36259494,"ECCENTRICITY":0.00550258,"INCLINATION":34.6583,"RA_OF_ASC_NODE":163.0948,"ARG_OF_PERICENTER":204.4819,"MEAN_ANOMALY":155.3278,"EPHEMERIS_TYPE":0,"CLASSIFICATION_TYPE":"U","NORAD_CAT_ID":43084,"ELEMENT_SET_NO":999,"REV_AT_EPOCH":45326,"BSTAR":0.00049058122,"MEAN_MOTION_DOT":0.00018774,"MEAN_MOTION_DDOT":0}]
